NORAD_CAT_ID,OBJECT_NAME,OBJECT_TYPE,EPOCH,MEAN_MOTION,ECCENTRICITY,INCLINATION,RA_OF_ASC_NODE,ARG_OF_PERICENTER,MEAN_ANOMALY,BSTAR,MEAN_MOTION_DOT,MEAN_MOTION_DDOT,TLE_LINE0,TLE_LINE1,TLE_LINE2,SEMIMAJOR_AXIS,PERIOD,APOGEE,PERIGEE,DECAYED
53551.0,STARLINK-4514,PAYLOAD,2023-11-24 03:14:45,15.08831112,0.0001635,53.2171,219.5572,116.7602,243.3557,-0.00010766,-2.001e-05,0.0,0 STARLINK-4514,1 53551U 22101AA  23328.13524906 -.00002001  00000-0 -10766-3 0  9991,2 53551  53.2171 219.5572 0001635 116.7602 243.3557 15.08831112 70678,6917.908,95.438,540.904,538.641,0.0
53551.0,STARLINK-4514,PAYLOAD,2023-11-24 22:19:23,15.08836212,0.0001818,53.2174,215.9904,122.0448,238.0721,-7.676e-05,-1.509e-05,0.0,0 STARLINK-4514,1 53551U 22101AA  23328.93013038 -.00001509  00000-0 -76760-4 0  9997,2 53551  53.2174 215.9904 0001818 122.0448 238.0721 15.08836212 70794,6917.892,95.438,541.015,538.499,0.0
53551.0,STARLINK-4514,PAYLOAD,2023-11-25 22:10:07,15.08867266,0.0001525,53.2168,211.5295,116.7783,243.3365,0.00037906,5.754e-05,0.0,0 STARLINK-4514,1 53551U 22101AA  23329.92369645  .00005754  00000-0  37906-3 0  9997,2 53551  53.2168 211.5295 0001525 116.7783 243.3365 15.08867266 70942,6917.797,95.436,540.717,538.607,0.0
53551.0,STARLINK-4514,PAYLOAD,2023-11-25 23:45:30,15.08869057,0.0001462,53.2172,211.2326,103.3549,256.7606,0.00039106,5.946e-05,0.0,0 STARLINK-4514,1 53551U 22101AA  23329.98993492  .00005946  00000-0  39106-3 0  9993,2 53551  53.2172 211.2326 0001462 103.3549 256.7606 15.08869057 70295,6917.792,95.436,540.668,538.645,0.0
53551.0,STARLINK-4514,PAYLOAD,2023-11-26 20:25:33,15.0883943,0.0002915,53.217,207.3583,144.0209,216.098,-9.2849e-05,-1.766e-05,0.0,0 STARLINK-4514,1 53551U 22101AA  23330.85108644 -.00001766  00000-0 -92849-4 0  9990,2 53551  53.2170 207.3583 0002915 144.0209 216.0980 15.08839430 70424,6917.882,95.438,541.764,537.731,0.0
53551.0,STARLINK-4514,PAYLOAD,2023-11-26 22:00:58,15.0882153,0.0001292,53.2169,207.0692,91.8506,268.2634,-0.00014686,-2.623e-05,0.0,0 STARLINK-4514,1 53551U 22101AA  23330.91734129 -.00002623  00000-0 -14686-3 0  9995,2 53551  53.2169 207.0692 0001292  91.8506 268.2634 15.08821530 71097,6917.937,95.439,540.696,538.908,0.0
53551.0,STARLINK-4514,PAYLOAD,2023-11-27 01:11:44,15.0882164,0.0001318,53.2173,206.4748,89.1922,270.9221,-0.00012957,-2.348e-05,0.0,0 STARLINK-4514,1 53551U 22101AA  23331.04982206 -.00002348  00000-0 -12957-3 0  9994,2 53551  53.2173 206.4748 0001318  89.1922 270.9221 15.08821640 70451,6917.937,95.439,540.713,538.89,0.0
53551.0,STARLINK-4514,PAYLOAD,2023-11-27 15:30:12,15.08849136,0.0001496,53.2176,203.7997,66.0335,294.0814,-0.00028473,-4.818e-05,0.0,0 STARLINK-4514,1 53551U 22101AA  23331.64597416 -.00004818  00000-0 -28473-3 0  9999,2 53551  53.2176 203.7997 0001496  66.0335 294.0814 15.08849136 70544,6917.852,95.437,540.752,538.683,0.0
53551.0,STARLINK-4514,PAYLOAD,2023-11-27 21:51:43,15.08863245,0.0001478,53.2177,202.6087,75.0085,285.1071,-0.00014994,-2.675e-05,0.0,0 STARLINK-4514,1 53551U 22101AA  23331.91091846 -.00002675  00000-0 -14994-3 0  9997,2 53551  53.2177 202.6087 0001478  75.0085 285.1071 15.08863245 71246,6917.809,95.436,540.697,538.652,0.0
53551.0,STARLINK-4514,PAYLOAD,2023-11-28 20:07:07,15.08831255,0.0001442,53.2171,198.447,66.7291,293.3853,0.00021703,3.167e-05,0.0,0 STARLINK-4514,1 53551U 22101AA  23332.83828528  .00003167  00000-0  21703-3 0  9995,2 53551  53.2171 198.4470 0001442  66.7291 293.3853 15.08831255 70722,6917.907,95.438,540.77,538.775,0.0
53551.0,STARLINK-4514,PAYLOAD,2023-11-28 21:42:30,15.08830697,0.0001371,53.2166,198.1508,66.0752,294.0384,0.00025292,3.739e-05,0.0,0 STARLINK-4514,1 53551U 22101AA  23332.90452450  .00003739  00000-0  25292-3 0  9992,2 53551  53.2166 198.1508 0001371  66.0752 294.0384 15.08830697 71391,6917.909,95.438,540.722,538.825,0.0
53551.0,STARLINK-4514,PAYLOAD,2023-11-30 00:44:04,15.08843,0.000129,53.2169,193.0929,95.2312,264.8827,-1.0376e-05,-4.53e-06,0.0,0 STARLINK-4514,1 53551U 22101AA  23334.03060675 -.00000453  00000-0 -10376-4 0  9992,2 53551  53.2169 193.0929 0001290  95.2312 264.8827 15.08843000 70906,6917.871,95.437,540.629,538.844,0.0
53551.0,STARLINK-4514,PAYLOAD,2023-11-30 19:48:42,15.08838394,0.0001387,53.2178,189.5215,100.3142,259.8006,-8.3727e-05,-1.62e-05,0.0,0 STARLINK-4514,1 53551U 22101AA  23334.82549391 -.00001620  00000-0 -83727-4 0  9993,2 53551  53.2178 189.5215 0001387 100.3142 259.8006 15.08838394 71027,6917.885,95.438,540.71,538.791,0.0
53551.0,STARLINK-4514,PAYLOAD,2023-12-01 19:39:27,15.08856248,0.000208,53.2177,185.062,122.3142,237.8051,0.00021363,3.115e-05,0.0,0 STARLINK-4514,1 53551U 22101AA  23335.81907248  .00003115  00000-0  21363-3 0  9998,2 53551  53.2177 185.0620 0002080 122.3142 237.8051 15.08856248 71172,6917.831,95.437,541.135,538.257,0.0
53551.0,STARLINK-4514,PAYLOAD,2023-12-02 00:25:37,15.0885554,0.0001567,53.2177,184.1708,100.1374,259.9795,0.00020639,3e-05,0.0,0 STARLINK-4514,1 53551U 22101AA  23336.01779312  .00003000  00000-0  20639-3 0  9998,2 53551  53.2177 184.1708 0001567 100.1374 259.9795 15.08855540 71869,6917.833,95.437,540.782,538.614,0.0
53551.0,STARLINK-4514,PAYLOAD,2023-12-02 19:30:17,15.08828388,0.000164,53.218,180.6111,67.1887,292.9278,-8.7626e-05,-1.682e-05,0.0,0 STARLINK-4514,1 53551U 22101AA  23336.81270464 -.00001682  00000-0 -87626-4 0  9996,2 53551  53.2180 180.6111 0001640  67.1887 292.9278 15.08828388 71329,6917.916,95.438,540.915,538.646,0.0
53551.0,STARLINK-4514,PAYLOAD,2023-12-02 21:05:40,15.08826941,0.0001519,53.2173,180.3116,70.1418,289.9738,-9.2521e-05,-1.76e-05,0.0,0 STARLINK-4514,1 53551U 22101AA  23336.87894533 -.00001760  00000-0 -92521-4 0  9998,2 53551  53.2173 180.3116 0001519  70.1418 289.9738 15.08826941 71995,6917.92,95.438,540.836,538.734,0.0
53551.0,STARLINK-4514,PAYLOAD,2023-12-03 00:16:27,15.08827549,0.0001425,53.2168,179.7129,76.6854,283.4297,-6.3247e-05,-1.294e-05,0.0,0 STARLINK-4514,1 53551U 22101AA  23337.01142397 -.00001294  00000-0 -63247-4 0  9994,2 53551  53.2168 179.7129 0001425  76.6854 283.4297 15.08827549 72014,6917.918,95.438,540.769,538.798,0.0
53551.0,STARLINK-4514,PAYLOAD,2023-12-03 19:21:04,15.08840688,0.0001472,53.2163,176.1444,85.8956,274.2205,-0.00011513,-2.12e-05,0.0,0 STARLINK-4514,1 53551U 22101AA  23337.80630131 -.00002120  00000-0 -11513-3 0  9996,2 53551  53.2163 176.1444 0001472  85.8956 274.2205 15.08840688 71472,6917.878,95.438,540.762,538.725,0.0
53551.0,STARLINK-4514,PAYLOAD,2023-12-04 12:50:19,15.08830754,0.0001531,53.2163,172.8732,73.0645,287.0515,9.3412e-05,1.199e-05,0.0,0 STARLINK-4514,1 53551U 22101AA  23338.53494250  .00001199  00000-0  93412-4 0  9999,2 53551  53.2163 172.8732 0001531  73.0645 287.0515 15.08830754 72240,6917.909,95.438,540.833,538.715,0.0
53551.0,STARLINK-4514,PAYLOAD,2023-12-04 16:01:05,15.08832018,0.0001527,53.2162,172.279,75.3943,284.7218,0.00012416,1.688e-05,0.0,0 STARLINK-4514,1 53551U 22101AA  23338.66742098  .00001688  00000-0  12416-3 0  9996,2 53551  53.2162 172.2790 0001527  75.3943 284.7218 15.08832018 72269,6917.905,95.438,540.826,538.713,0.0
53551.0,STARLINK-4514,PAYLOAD,2023-12-05 12:41:05,15.08840769,0.0001599,53.2162,168.4132,71.6379,288.4787,0.00013144,1.805e-05,0.0,0 STARLINK-4514,1 53551U 22101AA  23339.52853707  .00001805  00000-0  13144-3 0  9992,2 53551  53.2162 168.4132 0001599  71.6379 288.4787 15.08840769 72395,6917.878,95.438,540.849,538.637,0.0
53551.0,STARLINK-4514,PAYLOAD,2023-12-05 22:13:23,15.08847576,0.0001626,53.2162,166.6293,71.5872,288.5297,0.00012214,1.657e-05,0.0,0 STARLINK-4514,1 53551U 22101AA  23339.92597179  .00001657  00000-0  12214-3 0  9996,2 53551  53.2162 166.6293 0001626  71.5872 288.5297 15.08847576 72458,6917.857,95.437,540.847,538.597,0.0
53551.0,STARLINK-4514,PAYLOAD,2023-12-06 12:31:52,15.08839193,0.0001593,53.216,163.9531,72.2561,287.8605,1.2629e-05,-8.7e-07,0.0,0 STARLINK-4514,1 53551U 22101AA  23340.52213672 -.00000087  00000-0  12629-4 0  9995,2 53551  53.2160 163.9531 0001593  72.2561 287.8605 15.08839193 72548,6917.883,95.438,540.85,538.646,0.0
53551.0,STARLINK-4514,PAYLOAD,2023-12-07 12:22:39,15.08839111,0.0001569,53.2161,159.4917,82.873,277.244,6.6468e-06,-1.82e-06,0.0,0 STARLINK-4514,1 53551U 22101AA  23341.51573617 -.00000182  00000-0  66468-5 0  9990,2 53551  53.2161 159.4917 0001569  82.8730 277.2440 15.08839111 72691,6917.883,95.438,540.834,538.663,0.0
53551.0,STARLINK-4514,PAYLOAD,2023-12-08 12:13:27,15.08835656,0.0001609,53.216,155.0314,78.963,281.1543,-2.9172e-06,-3.34e-06,0.0,0 STARLINK-4514,1 53551U 22101AA  23342.50934098 -.00000334  00000-0 -29172-5 0  9995,2 53551  53.2160 155.0314 0001609  78.9630 281.1543 15.08835656 72185,6917.894,95.438,540.872,538.646,0.0
53551.0,STARLINK-4514,PAYLOAD,2023-12-09 12:04:13,15.08837773,0.0001643,53.2161,150.5712,78.1365,281.9811,-8.6694e-06,-4.26e-06,0.0,0 STARLINK-4514,1 53551U 22101AA  23343.50293933 -.00000426  00000-0 -86694-5 0  9996,2 53551  53.2161 150.5712 0001643  78.1365 281.9811 15.08837773 72990,6917.887,95.438,540.889,538.616,0.0
53551.0,STARLINK-4514,PAYLOAD,2023-12-10 10:19:37,15.08838144,0.000205,53.2155,146.4027,108.2321,251.8894,-1.0886e-05,-4.61e-06,0.0,0 STARLINK-4514,1 53551U 22101AA  23344.43029793 -.00000461  00000-0 -10886-4 0  9998,2 53551  53.2155 146.4027 0002050 108.2321 251.8894 15.08838144 72479,6917.886,95.438,541.169,538.333,0.0
53551.0,STARLINK-4514,PAYLOAD,2023-12-10 18:16:33,15.088385,0.0001329,53.2165,144.9201,85.1919,274.9225,4.1614e-05,3.74e-06,0.0,0 STARLINK-4514,1 53551U 22101AA  23344.76149878  .00000374  00000-0  41614-4 0  9995,2 53551  53.2165 144.9201 0001329  85.1919 274.9225 15.08838500 73180,6917.885,95.438,540.669,538.831,0.0
53551.0,STARLINK-4514,PAYLOAD,2023-12-11 14:56:34,15.08838301,0.0001445,53.2169,141.0549,77.3203,282.795,1.4629e-05,-5.5e-07,0.0,0 STARLINK-4514,1 53551U 22101AA  23345.62262121 -.00000055  00000-0  14629-4 0  9991,2 53551  53.2169 141.0549 0001445  77.3203 282.7950 15.08838301 73311,6917.886,95.438,540.75,538.751,0.0
